ONEWEB-0309             
1 49095U 21075W   26193.45170690 -.00000046  00000+0 -15039-3 0  9997
2 49095  87.9140   0.8367 0002321  94.1374 266.0023 13.17649999236905
ONEWEB-0310             
1 49096U 21075X   26193.85132925  .00000429  00000+0  11578-2 0  9997
2 49096  87.9001 345.5749 0002132  92.0715 268.0658 13.12403659238556
ONEWEB-0311             
1 49097U 21075Y   26193.53439342  .00000029  00000+0  40379-4 0  9995
2 49097  87.9140   0.8199 0001738  73.9254 286.2069 13.17648154236965
ONEWEB-0312             
1 49098U 21075Z   26193.54958744 -.00000026  00000+0 -99775-4 0  9992
2 49098  87.9135   0.8277 0001989  82.2787 277.8571 13.17648196236947
ONEWEB-0313             
1 49099U 21075AA  26193.47856773  .00000086  00000+0  18707-3 0  9993
2 49099  87.9123   0.8454 0001765  87.8506 272.2828 13.17650577236922
ONEWEB-0314             
1 49100U 21075AB  26193.52103785 -.00019561  00000+0 -50631-1 0  9990
2 49100  87.9162   0.8119 0001474  75.4447 284.6848 13.17503355236908
ONEWEB-0315             
1 49101U 21075AC  26193.44300587 -.00000276  00000+0 -80125-3 0  9997
2 49101  87.8967 345.6235 0001666  84.3948 275.7371 13.12442040238483
ONEWEB-0316             
1 49102U 21075AD  26193.80520791  .00002166  00000+0  54619-2 0  9995
2 49102  87.9197 330.3604 0001908 103.7974 256.3371 13.18675811240584
ONEWEB-0317             
1 49103U 21075AE  26193.82758097 -.00000352  00000+0 -10127-2 0  9993
2 49103  87.8964 345.5703 0002408 109.5056 250.6332 13.12441891238556
ONEWEB-0318             
1 49104U 21075AF  26193.34644038  .00000049  00000+0  90677-4 0  9991
2 49104  87.9191 330.4543 0001828  91.0866 269.0476 13.18686565240487
ONEWEB-0319             
1 49105U 21075AG  26193.46014177  .00000049  00000+0  91992-4 0  9991
2 49105  87.9151   0.8399 0001749  85.1173 275.0158 13.17647868236939
ONEWEB-0323             
1 49106U 21075AH  26193.42776504  .00000240  00000+0  63189-3 0  9996
2 49106  87.8968 345.6314 0001754  78.1065 282.0260 13.12442107237869
ONEWEB-0329             
1 49107U 21075AJ  26193.46857556  .00000034  00000+0  55670-4 0  9996
2 49107  87.9142   0.8391 0001920  87.2735 272.8617 13.17650525236918
ONEWEB-0330             
1 49108U 21075AK  26193.85175582  .00000212  00000+0  51304-3 0  9999
2 49108  87.9111   0.7736 0001821  84.0857 276.0482 13.17648633237001
ONEWEB-0292             
1 49186U 21083A   26193.76122501 -.00000204  00000+0 -59368-3 0  9998
2 49186  87.8972 315.1478 0001847  96.0520 264.0819 13.13470233234288
ONEWEB-0303             
1 49187U 21083B   26193.79831218  .00000025  00000+0  29774-4 0  9992
2 49187  87.9180 330.3631 0001762  92.4657 267.6677 13.18684299233350
ONEWEB-0306             
1 49188U 21083C   26193.78820649  .00000026  00000+0  32745-4 0  9991
2 49188  87.9180 330.3529 0001951 100.5191 259.6161 13.18684590233398
ONEWEB-0307             
1 49189U 21083D   26193.75528939 -.00000506  00000+0 -14207-2 0  9992
2 49189  87.8972 315.1468 0001951  97.0295 263.1056 13.13469785234289
ONEWEB-0320             
1 49190U 21083E   26193.80843145  .00000024  00000+0  28844-4 0  9996
2 49190  87.9187 330.3651 0001917  98.1380 261.9970 13.18687110233359
ONEWEB-0321             
1 49191U 21083F   26193.73108117  .00000072  00000+0  14440-3 0  9991
2 49191  87.9188 269.3452 0002021 103.6309 256.5050 13.20772615240200
ONEWEB-0322             
1 49192U 21083G   26193.75107367 -.00000303  00000+0 -86377-3 0  9997
2 49192  87.8974 315.1474 0001998 111.8443 248.2899 13.13470224234271
ONEWEB-0324             
1 49193U 21083H   26193.78146927  .00000011  00000+0 -44904-5 0  9993
2 49193  87.9194 330.3611 0002105  96.0005 264.1367 13.18686523233371
ONEWEB-0325             
1 49194U 21083J   26193.78483377 -.00000065  00000+0 -19880-3 0  9990
2 49194  87.9179 330.3653 0001726  98.8310 261.3018 13.18686674233388
ONEWEB-0326             
1 49195U 21083K   26193.80016346  .00000003  00000+0 -25186-4 0  9990
2 49195  87.9194 330.3631 0001661  92.2679 267.8643 13.18686039233375
ONEWEB-0327             
1 49196U 21083L   26193.79988296  .00000015  00000+0  45890-5 0  9998
2 49196  87.9178 330.3653 0001455  92.6765 267.4534 13.18685998233393
ONEWEB-0328             
1 49197U 21083M   26193.74091529 -.00000202  00000+0 -58674-3 0  9990
2 49197  87.8989 315.1252 0002072  99.0497 261.0867 13.13469240234258
ONEWEB-0331             
1 49198U 21083N   26193.79326351  .00000057  00000+0  11198-3 0  9996
2 49198  87.9194 330.3583 0001732  87.1714 272.9616 13.18684666233388
ONEWEB-0333             
1 49199U 21083P   26193.73583728 -.00000121  00000+0 -36628-3 0  9993
2 49199  87.8977 315.1502 0001874 100.1897 259.9443 13.13468986234265
ONEWEB-0334             
1 49200U 21083Q   26193.74537310  .00000066  00000+0  12966-3 0  9998
2 49200  87.9191 269.3516 0002326 117.2451 242.8920 13.20769410240161
ONEWEB-0335             
1 49201U 21083R   26193.73075477  .00000028  00000+0  41082-4 0  9999
2 49201  87.8978 315.1482 0001814  95.5729 264.5607 13.13464878234273
