OBJECT_NAME,OBJECT_ID,EPOCH,MEAN_MOTION,ECCENTRICITY,INCLINATION,RA_OF_ASC_NODE,ARG_OF_PERICENTER,MEAN_ANOMALY,EPHEMERIS_TYPE,CLASSIFICATION_TYPE,NORAD_CAT_ID,ELEMENT_SET_NO,REV_AT_EPOCH,BSTAR,MEAN_MOTION_DOT,MEAN_MOTION_DDOT
ONEWEB-0309,2021-075W,2026-07-12T10:50:27.476160,13.17649999,.00023215,87.9140,0.8367,94.1374,266.0023,0,U,49095,999,23690,-.15038581E-3,-.46E-6,0
ONEWEB-0310,2021-075X,2026-07-12T20:25:54.847200,13.12403659,.0002132,87.9001,345.5749,92.0715,268.0658,0,U,49096,999,23855,.11578E-2,.429E-5,0
ONEWEB-0311,2021-075Y,2026-07-12T12:49:31.591488,13.17648154,.00017389,87.9140,0.8199,73.9254,286.2069,0,U,49097,999,23696,.40379302E-4,.29E-6,0
ONEWEB-0312,2021-075Z,2026-07-12T13:11:24.354816,13.17648196,.0001989,87.9135,0.8277,82.2787,277.8571,0,U,49098,999,23694,-.99775E-4,-.26E-6,0
ONEWEB-0313,2021-075AA,2026-07-12T11:29:08.251872,13.17650577,.0001765,87.9123,0.8454,87.8506,272.2828,0,U,49099,999,23692,.18706548E-3,.86E-6,0
ONEWEB-0314,2021-075AB,2026-07-12T12:30:17.670240,13.17503355,.00014746,87.9162,0.8119,75.4447,284.6848,0,U,49100,999,23690,-.5063067E-1,-.19561E-3,0
ONEWEB-0315,2021-075AC,2026-07-12T10:37:55.707168,13.12442040,.00016669,87.8967,345.6235,84.3948,275.7371,0,U,49101,999,23848,-.80124875E-3,-.276E-5,0
ONEWEB-0316,2021-075AD,2026-07-12T19:19:29.963424,13.18675811,.0001908,87.9197,330.3604,103.7974,256.3371,0,U,49102,999,24058,.54619E-2,.2166E-4,0
ONEWEB-0317,2021-075AE,2026-07-12T19:51:42.995808,13.12441891,.0002408,87.8964,345.5703,109.5056,250.6332,0,U,49103,999,23855,-.10127E-2,-.352E-5,0
ONEWEB-0318,2021-075AF,2026-07-12T08:18:52.448832,13.18686565,.00018283,87.9191,330.4543,91.0866,269.0476,0,U,49104,999,24048,.9067698E-4,.49E-6,0
ONEWEB-0319,2021-075AG,2026-07-12T11:02:36.248928,13.17647868,.00017497,87.9151,0.8399,85.1173,275.0158,0,U,49105,999,23693,.91992432E-4,.49E-6,0
ONEWEB-0323,2021-075AH,2026-07-12T10:15:58.899456,13.12442107,.00017542,87.8968,345.6314,78.1065,282.0260,0,U,49106,999,23786,.63188731E-3,.24E-5,0
ONEWEB-0329,2021-075AJ,2026-07-12T11:14:44.928384,13.17650525,.00019208,87.9142,0.8391,87.2735,272.8617,0,U,49107,999,23691,.55669647E-4,.34E-6,0
ONEWEB-0330,2021-075AK,2026-07-12T20:26:31.702848,13.17648633,.0001821,87.9111,0.7736,84.0857,276.0482,0,U,49108,999,23700,.51304E-3,.212E-5,0
ONEWEB-0292,2021-083A,2026-07-12T18:16:09.840864,13.13470233,.0001847,87.8972,315.1478,96.0520,264.0819,0,U,49186,999,23428,-.59368E-3,-.204E-5,0
ONEWEB-0303,2021-083B,2026-07-12T19:09:34.172352,13.18684299,.0001762,87.9180,330.3631,92.4657,267.6677,0,U,49187,999,23335,.29774E-4,.25E-6,0
ONEWEB-0306,2021-083C,2026-07-12T18:55:01.040736,13.18684590,.0001951,87.9180,330.3529,100.5191,259.6161,0,U,49188,999,23339,.32745E-4,.26E-6,0
ONEWEB-0307,2021-083D,2026-07-12T18:07:37.003296,13.13469785,.0001951,87.8972,315.1468,97.0295,263.1056,0,U,49189,999,23428,-.14207E-2,-.506E-5,0
ONEWEB-0320,2021-083E,2026-07-12T19:24:08.477280,13.18687110,.0001917,87.9187,330.3651,98.1380,261.9970,0,U,49190,999,23335,.28844E-4,.24E-6,0
ONEWEB-0321,2021-083F,2026-07-12T17:32:45.413088,13.20772615,.0002021,87.9188,269.3452,103.6309,256.5050,0,U,49191,999,24020,.1444E-3,.72E-6,0
ONEWEB-0322,2021-083G,2026-07-12T18:01:32.765088,13.13470224,.0001998,87.8974,315.1474,111.8443,248.2899,0,U,49192,999,23427,-.86377E-3,-.303E-5,0
ONEWEB-0324,2021-083H,2026-07-12T18:45:18.944928,13.18686523,.0002105,87.9194,330.3611,96.0005,264.1367,0,U,49193,999,23337,-.44904E-5,.11E-6,0
ONEWEB-0325,2021-083J,2026-07-12T18:50:09.637728,13.18686674,.0001726,87.9179,330.3653,98.8310,261.3018,0,U,49194,999,23338,-.1988E-3,-.65E-6,0
ONEWEB-0326,2021-083K,2026-07-12T19:12:14.122944,13.18686039,.0001661,87.9194,330.3631,92.2679,267.8643,0,U,49195,999,23337,-.25186E-4,.3E-7,0
ONEWEB-0327,2021-083L,2026-07-12T19:11:49.887744,13.18685998,.0001455,87.9178,330.3653,92.6765,267.4534,0,U,49196,999,23339,.4589E-5,.15E-6,0
ONEWEB-0328,2021-083M,2026-07-12T17:46:55.081056,13.13469240,.0002072,87.8989,315.1252,99.0497,261.0867,0,U,49197,999,23425,-.58674E-3,-.202E-5,0
ONEWEB-0331,2021-083N,2026-07-12T19:02:17.967264,13.18684666,.0001732,87.9194,330.3583,87.1714,272.9616,0,U,49198,999,23338,.11198E-3,.57E-6,0
ONEWEB-0333,2021-083P,2026-07-12T17:39:36.340992,13.13468986,.0001874,87.8977,315.1502,100.1897,259.9443,0,U,49199,999,23426,-.36628E-3,-.121E-5,0
ONEWEB-0334,2021-083Q,2026-07-12T17:53:20.235840,13.20769410,.0002326,87.9191,269.3516,117.2451,242.8920,0,U,49200,999,24016,.12966E-3,.66E-6,0
ONEWEB-0335,2021-083R,2026-07-12T17:32:17.212128,13.13464878,.0001814,87.8978,315.1482,95.5729,264.5607,0,U,49201,999,23427,.41082E-4,.28E-6,0
